{
    "links": {
        "self": "http://www.neowsapp.com/rest/v1/neo/3771615?api_key=iIulBulltgU6a56xZRHN4H3l9WmuAYTsLGpBGhQ2"
    },
    "id": "3771615",
    "neo_reference_id": "3771615",
    "name": "(2017 FJ1)",
    "designation": "2017 FJ1",
    "nasa_jpl_url": "http://ssd.jpl.nasa.gov/sbdb.cgi?sstr=3771615",
    "absolute_magnitude_h": 23.3,
    "estimated_diameter": {
        "kilometers": {
            "estimated_diameter_min": 0.058150704,
            "estimated_diameter_max": 0.130028927
        },
        "meters": {
            "estimated_diameter_min": 58.1507039646,
            "estimated_diameter_max": 130.0289270043
        },
        "miles": {
            "estimated_diameter_min": 0.0361331611,
            "estimated_diameter_max": 0.0807962044
        },
        "feet": {
            "estimated_diameter_min": 190.7831555951,
            "estimated_diameter_max": 426.6041048727
        }
    },
    "is_potentially_hazardous_asteroid": false,
    "close_approach_data": [
        {
            "close_approach_date": "2017-04-01",
            "close_approach_date_full": "2017-Apr-01 00:12",
            "epoch_date_close_approach": 1491005520000,
            "relative_velocity": {
                "kilometers_per_second": "18.18145168",
                "kilometers_per_hour": "65453.226047878",
                "miles_per_hour": "40670.0892629162"
            },
            "miss_distance": {
                "astronomical": "0.1151216007",
                "lunar": "44.7823026723",
                "kilometers": "17221946.255710509",
                "miles": "10701221.1810786642"
            },
            "orbiting_body": "Earth"
        }
    ],
    "orbital_data": {
        "orbit_id": "8",
        "orbit_determination_date": "2017-04-06 08:19:24",
        "first_observation_date": "2017-03-18",
        "last_observation_date": "2017-03-30",
        "data_arc_in_days": 12,
        "observations_used": 41,
        "orbit_uncertainty": "8",
        "minimum_orbit_intersection": ".109479",
        "jupiter_tisserand_invariant": "3.616",
        "epoch_osculation": "2457834.5",
        "eccentricity": ".5312599770526596",
        "semi_major_axis": "1.929930028311931",
        "inclination": "26.97287823295991",
        "ascending_node_longitude": "1.917404895474286",
        "orbital_period": "979.2887651061608",
        "perihelion_distance": ".9046354457576959",
        "perihelion_argument": "246.8421270119374",
        "aphelion_distance": "2.955224610866166",
        "perihelion_time": "2457891.502543633148",
        "mean_anomaly": "339.045082064524",
        "mean_motion": ".3676137344034309",
        "equinox": "J2000",
        "orbit_class": {
            "orbit_class_type": "APO",
            "orbit_class_description": "Near-Earth asteroid orbits which cross the Earth’s orbit similar to that of 1862 Apollo",
            "orbit_class_range": "a (semi-major axis) > 1.0 AU; q (perihelion) < 1.017 AU"
        }
    },
    "is_sentry_object": false
}